NORAD_CAT_ID,OBJECT_NAME,OBJECT_TYPE,EPOCH,MEAN_MOTION,ECCENTRICITY,INCLINATION,RA_OF_ASC_NODE,ARG_OF_PERICENTER,MEAN_ANOMALY,BSTAR,MEAN_MOTION_DOT,MEAN_MOTION_DDOT,TLE_LINE0,TLE_LINE1,TLE_LINE2,SEMIMAJOR_AXIS,PERIOD,APOGEE,PERIGEE,DECAYED
53820.0,STARLINK-4758,PAYLOAD,2023-03-19 04:32:44,15.08834526,0.0001339,53.216,141.831,92.8386,267.2759,-0.0001058,-1.971e-05,0.0,0 STARLINK-4758,1 53820U 22114C   23078.18939894 -.00001971  00000-0 -10580-3 0  9996,2 53820  53.2160 141.8310 0001339  92.8386 267.2759 15.08834526 28265,6917.897,95.438,540.688,538.836,0.0
53820.0,STARLINK-4758,PAYLOAD,2023-03-19 10:54:16,15.08840821,0.00011,53.2178,140.6445,86.4599,273.6519,8.3738e-05,1.045e-05,0.0,0 STARLINK-4758,1 53820U 22114C   23078.45435781  .00001045  00000-0  83738-4 0  9998,2 53820  53.2178 140.6445 0001100  86.4599 273.6519 15.08840821 28845,6917.878,95.438,540.504,538.982,0.0
53820.0,STARLINK-4758,PAYLOAD,2023-03-19 20:26:35,15.08841238,0.0001121,53.2159,138.8587,82.5049,277.607,0.00010532,1.389e-05,0.0,0 STARLINK-4758,1 53820U 22114C   23078.85179880  .00001389  00000-0  10532-3 0  9999,2 53820  53.2159 138.8587 0001121  82.5049 277.6070 15.08841238 28906,6917.877,95.437,540.517,538.966,0.0
53820.0,STARLINK-4758,PAYLOAD,2023-03-20 07:34:17,15.0884533,0.0001084,53.2161,136.778,85.0142,275.0974,0.00031203,4.682e-05,0.0,0 STARLINK-4758,1 53820U 22114C   23079.31547873  .00004682  00000-0  31203-3 0  9999,2 53820  53.2161 136.7780 0001084  85.0142 275.0974 15.08845330 28431,6917.864,95.437,540.479,538.979,0.0
53820.0,STARLINK-4758,PAYLOAD,2023-03-20 09:09:40,15.08846141,0.0001085,53.2161,136.4806,86.4752,273.6364,0.00047999,7.361e-05,0.0,0 STARLINK-4758,1 53820U 22114C   23079.38171909  .00007361  00000-0  47999-3 0  9995,2 53820  53.2161 136.4806 0001085  86.4752 273.6364 15.08846141 28988,6917.862,95.437,540.477,538.976,0.0
53820.0,STARLINK-4758,PAYLOAD,2023-03-20 20:17:22,15.08847571,0.0001014,53.2147,134.3979,82.3906,277.7201,0.0002994,4.481e-05,0.0,0 STARLINK-4758,1 53820U 22114C   23079.84539751  .00004481  00000-0  29940-3 0  9995,2 53820  53.2147 134.3979 0001014  82.3906 277.7201 15.08847571 29050,6917.857,95.437,540.424,539.021,0.0
53820.0,STARLINK-4758,PAYLOAD,2023-03-21 07:25:04,15.08837892,0.000115,53.2165,132.3167,100.473,259.6392,4.7114e-05,4.62e-06,0.0,0 STARLINK-4758,1 53820U 22114C   23080.30908034  .00000462  00000-0  47114-4 0  9991,2 53820  53.2165 132.3167 0001150 100.4730 259.6392 15.08837892 28587,6917.887,95.438,540.547,538.956,0.0
53820.0,STARLINK-4758,PAYLOAD,2023-03-21 09:00:27,15.08837419,0.0001164,53.2164,132.0193,101.2479,258.8644,3.5199e-05,2.72e-06,0.0,0 STARLINK-4758,1 53820U 22114C   23080.37532047  .00000272  00000-0  35199-4 0  9994,2 53820  53.2164 132.0193 0001164 101.2479 258.8644 15.08837419 29134,6917.888,95.438,540.559,538.948,0.0
53820.0,STARLINK-4758,PAYLOAD,2023-03-21 20:08:09,15.08843591,0.0001205,53.2164,129.9384,96.3326,263.7804,0.00011897,1.606e-05,0.0,0 STARLINK-4758,1 53820U 22114C   23080.83899777  .00001606  00000-0  11897-3 0  9991,2 53820  53.2164 129.9384 0001205  96.3326 263.7804 15.08843591 29201,6917.869,95.437,540.568,538.901,0.0
53820.0,STARLINK-4758,PAYLOAD,2023-03-22 10:26:38,15.08837821,0.0001419,53.2172,127.2615,100.9966,259.1186,2.0992e-05,4.6e-07,0.0,0 STARLINK-4758,1 53820U 22114C   23081.43516223  .00000046  00000-0  20992-4 0  9994,2 53820  53.2172 127.2615 0001419 100.9966 259.1186 15.08837821 28757,6917.887,95.438,540.734,538.77,0.0
53820.0,STARLINK-4758,PAYLOAD,2023-03-23 10:17:24,15.08846694,0.0001222,53.2161,122.8004,98.8469,261.2662,0.00020941,3.047e-05,0.0,0 STARLINK-4758,1 53820U 22114C   23082.42875913  .00003047  00000-0  20941-3 0  9995,2 53820  53.2161 122.8004 0001222  98.8469 261.2662 15.08846694 29441,6917.86,95.437,540.57,538.88,0.0
53820.0,STARLINK-4758,PAYLOAD,2023-03-23 19:49:43,15.08847661,0.0001242,53.2153,121.0159,95.9228,264.1906,0.00027377,4.073e-05,0.0,0 STARLINK-4758,1 53820U 22114C   23082.82619921  .00004073  00000-0  27377-3 0  9994,2 53820  53.2153 121.0159 0001242  95.9228 264.1906 15.08847661 28961,6917.857,95.437,540.581,538.863,0.0
53820.0,STARLINK-4758,PAYLOAD,2023-03-24 06:57:24,15.08881513,0.0001342,53.2151,118.934,87.804,272.3106,0.00050497,7.767e-05,0.0,0 STARLINK-4758,1 53820U 22114C   23083.28986533  .00007767  00000-0  50497-3 0  9993,2 53820  53.2151 118.9340 0001342  87.8040 272.3106 15.08881513 29035,6917.754,95.435,540.547,538.69,0.0
53820.0,STARLINK-4758,PAYLOAD,2023-03-24 10:08:10,15.08889036,0.0001377,53.215,118.3407,85.5792,274.5357,0.0015355,0.00024267,0.0,0 STARLINK-4758,1 53820U 22114C   23083.42234905  .00024267  00000-0  15355-2 0  9995,2 53820  53.2150 118.3407 0001377  85.5792 274.5357 15.08889036 29590,6917.731,95.434,540.548,538.643,0.0
53820.0,STARLINK-4758,PAYLOAD,2023-03-25 02:02:03,15.08830003,0.0001714,53.215,115.3672,78.1246,281.9938,-0.00017242,-3.03e-05,0.0,0 STARLINK-4758,1 53820U 22114C   23084.08476204 -.00003030  00000-0 -17242-3 0  9993,2 53820  53.2150 115.3672 0001714  78.1246 281.9938 15.08830003 29157,6917.911,95.438,540.962,538.59,0.0
53820.0,STARLINK-4758,PAYLOAD,2023-03-25 08:23:36,15.08825644,0.0001365,53.2154,114.1768,128.9532,231.1582,-0.00013342,-2.41e-05,0.0,0 STARLINK-4758,1 53820U 22114C   23084.34972516 -.00002410  00000-0 -13342-3 0  9997,2 53820  53.2154 114.1768 0001365 128.9532 231.1582 15.08825644 29739,6917.924,95.438,540.734,538.845,0.0
53820.0,STARLINK-4758,PAYLOAD,2023-03-26 05:03:38,15.08828757,0.0001347,53.2176,110.3095,77.1883,282.9259,0.00041082,6.254e-05,0.0,0 STARLINK-4758,1 53820U 22114C   23085.21085865  .00006254  00000-0  41082-3 0  9996,2 53820  53.2176 110.3095 0001347  77.1883 282.9259 15.08828757 29326,6917.915,95.438,540.712,538.848,0.0
53820.0,STARLINK-4758,PAYLOAD,2023-03-26 08:14:24,15.08837632,0.0001454,53.2166,109.7133,74.2425,285.8727,0.00079705,0.00012419,0.0,0 STARLINK-4758,1 53820U 22114C   23085.34333869  .00012419  00000-0  79705-3 0  9993,2 53820  53.2166 109.7133 0001454  74.2425 285.8727 15.08837632 29345,6917.888,95.438,540.758,538.747,0.0
53820.0,STARLINK-4758,PAYLOAD,2023-03-27 08:05:10,15.08893431,0.0001446,53.2167,105.2535,67.8713,292.2433,0.0018631,0.00029531,0.0,0 STARLINK-4758,1 53820U 22114C   23086.33692804  .00029531  00000-0  18631-2 0  9993,2 53820  53.2167 105.2535 0001446  67.8713 292.2433 15.08893431 29493,6917.717,95.434,540.582,538.582,0.0
53820.0,STARLINK-4758,PAYLOAD,2023-03-27 17:37:28,15.08882784,0.000141,53.2172,103.4701,75.8541,284.2608,0.00089154,0.00013946,0.0,0 STARLINK-4758,1 53820U 22114C   23086.73435633  .00013946  00000-0  89154-3 0  9994,2 53820  53.2172 103.4701 0001410  75.8541 284.2608 15.08882784 29554,6917.75,95.435,540.59,538.639,0.0
53820.0,STARLINK-4758,PAYLOAD,2023-03-28 06:20:33,15.08837167,0.0001443,53.2172,101.0909,89.2377,270.8781,-0.00052117,-8.572e-05,0.0,0 STARLINK-4758,1 53820U 22114C   23087.26428089 -.00008572  00000-0 -52117-3 0  9990,2 53820  53.2172 101.0909 0001443  89.2377 270.8781 15.08837167 29637,6917.889,95.438,540.752,538.756,0.0
53820.0,STARLINK-4758,PAYLOAD,2023-03-29 06:11:21,15.08847253,0.0001457,53.2171,96.6308,94.7968,265.319,0.00086251,0.00013468,0.0,0 STARLINK-4758,1 53820U 22114C   23088.25788673  .00013468  00000-0  86251-3 0  9992,2 53820  53.2171  96.6308 0001457  94.7968 265.3190 15.08847253 29786,6917.858,95.437,540.731,538.715,0.0
53820.0,STARLINK-4758,PAYLOAD,2023-03-29 17:19:03,15.08849065,0.0001374,53.2174,94.5507,105.2151,254.8993,0.00068346,0.00010609,0.0,0 STARLINK-4758,1 53820U 22114C   23088.72156652  .00010609  00000-0  68346-3 0  9999,2 53820  53.2174  94.5507 0001374 105.2151 254.8993 15.08849065 29852,6917.853,95.437,540.668,538.767,0.0
53820.0,STARLINK-4758,PAYLOAD,2023-03-30 01:15:59,15.08837083,0.0001777,53.2198,93.0668,105.5674,254.5515,0.00014685,2.05e-05,0.0,0 STARLINK-4758,1 53820U 22114C   23089.05276996  .00002050  00000-0  14685-3 0  9998,2 53820  53.2198  93.0668 0001777 105.5674 254.5515 15.08837083 29900,6917.889,95.438,540.984,538.525,0.0
53820.0,STARLINK-4758,PAYLOAD,2023-03-30 07:37:31,15.08841058,0.0001612,53.2188,91.8768,101.4793,258.638,0.00011619,1.562e-05,0.0,0 STARLINK-4758,1 53820U 22114C   23089.31772911  .00001562  00000-0  11619-3 0  9996,2 53820  53.2188  91.8768 0001612 101.4793 258.6380 15.08841058 30488,6917.877,95.437,540.857,538.627,0.0
53820.0,STARLINK-4758,PAYLOAD,2023-03-31 05:52:55,15.08841451,0.0001494,53.2169,87.7118,103.4244,256.6914,0.00014055,1.95e-05,0.0,0 STARLINK-4758,1 53820U 22114C   23090.24509145  .00001950  00000-0  14055-3 0  9995,2 53820  53.2169  87.7118 0001494 103.4244 256.6914 15.08841451 30085,6917.876,95.437,540.774,538.707,0.0
53820.0,STARLINK-4758,PAYLOAD,2023-04-01 05:43:43,15.08837588,0.0001083,53.217,83.2525,90.6461,269.4655,0.00014322,1.992e-05,0.0,0 STARLINK-4758,1 53820U 22114C   23091.23869557  .00001992  00000-0  14322-3 0  9994,2 53820  53.2170  83.2525 0001083  90.6461 269.4655 15.08837588 30239,6917.888,95.438,540.502,539.004,0.0
53820.0,STARLINK-4758,PAYLOAD,2023-04-01 08:54:29,15.0884317,0.0001333,53.2157,82.6549,99.8133,260.3009,0.00021236,3.094e-05,0.0,0 STARLINK-4758,1 53820U 22114C   23091.37117334  .00003094  00000-0  21236-3 0  9995,2 53820  53.2157  82.6549 0001333  99.8133 260.3009 15.08843170 30796,6917.871,95.437,540.658,538.814,0.0
53820.0,STARLINK-4758,PAYLOAD,2023-04-01 16:51:25,15.08839412,0.0001066,53.2163,81.1702,81.0895,279.0217,0.00015849,2.235e-05,0.0,0 STARLINK-4758,1 53820U 22114C   23091.70237527  .00002235  00000-0  15849-3 0  9998,2 53820  53.2163  81.1702 0001066  81.0895 279.0217 15.08839412 30847,6917.882,95.438,540.485,539.01,0.0
53820.0,STARLINK-4758,PAYLOAD,2023-04-02 08:45:16,15.08848817,0.0001194,53.2167,78.1963,78.47,281.6426,0.00031712,4.764e-05,0.0,0 STARLINK-4758,1 53820U 22114C   23092.36477449  .00004764  00000-0  31712-3 0  9996,2 53820  53.2167  78.1963 0001194  78.4700 281.6426 15.08848817 30405,6917.853,95.437,540.544,538.892,0.0
